[{"OBJECT_NAME":"OBJECT G","OBJECT_ID":"2025-155G","EPOCH":"2026-03-09T22:09:56.639808","MEAN_MOTION":15.27590702,"ECCENTRICITY":0.00081871,"INCLINATION":97.4488,"RA_OF_ASC_NODE":37.3259,"ARG_OF_PERICENTER":154.1528,"MEAN_ANOMALY":206.0122,"EPHEMERIS_TYPE":0,"CLASSIFICATION_TYPE":"U","NORAD_CAT_ID":64882,"ELEMENT_SET_NO":999,"REV_AT_EPOCH":6559,"BSTAR":0.0004792617,"MEAN_MOTION_DOT":0.00012876,"MEAN_MOTION_DDOT":0},{"OBJECT_NAME":"STARLINK-35535","OBJECT_ID":"2025-253Z","EPOCH":"2026-03-09T10:18:08.145216","MEAN_MOTION":15.27599353,"ECCENTRICITY":0.00034743,"INCLINATION":42.9996,"RA_OF_ASC_NODE":214.0608,"ARG_OF_PERICENTER":290.0123,"MEAN_ANOMALY":70.0355,"EPHEMERIS_TYPE":0,"CLASSIFICATION_TYPE":"U","NORAD_CAT_ID":66342,"ELEMENT_SET_NO":999,"REV_AT_EPOCH":2020,"BSTAR":0.0015501962,"MEAN_MOTION_DOT":0.00042673,"MEAN_MOTION_DDOT":0}]
